[{"OBJECT_NAME":"OBJECT B","OBJECT_ID":"2025-284B","EPOCH":"2026-03-09T22:41:21.082560","MEAN_MOTION":13.97295842,"ECCENTRICITY":0.00117879,"INCLINATION":80.3988,"RA_OF_ASC_NODE":32.8503,"ARG_OF_PERICENTER":139.3103,"MEAN_ANOMALY":220.8941,"EPHEMERIS_TYPE":0,"CLASSIFICATION_TYPE":"U","NORAD_CAT_ID":66914,"ELEMENT_SET_NO":999,"REV_AT_EPOCH":1362,"BSTAR":0.00013516882,"MEAN_MOTION_DOT":1.99e-6,"MEAN_MOTION_DDOT":0},{"OBJECT_NAME":"CZ-6A DEB","OBJECT_ID":"2024-140AAJ","EPOCH":"2026-03-09T20:13:25.637376","MEAN_MOTION":14.05768761,"ECCENTRICITY":0.01064921,"INCLINATION":88.979,"RA_OF_ASC_NODE":286.3147,"ARG_OF_PERICENTER":184.75,"MEAN_ANOMALY":175.2682,"EPHEMERIS_TYPE":0,"CLASSIFICATION_TYPE":"U","NORAD_CAT_ID":61476,"ELEMENT_SET_NO":999,"REV_AT_EPOCH":7750,"BSTAR":-7.5526146e-5,"MEAN_MOTION_DOT":-1.15e-6,"MEAN_MOTION_DDOT":0}]
